COSMOS 1933             
1 18958U 88020A   26002.85776232  .00008128  00000+0  40584-3 0  9991
2 18958  82.5150 316.0104 0006198  75.0981 285.0938 15.17334282 40244
SL-3 R/B                
1 19046U 88032B   26002.81175972  .00009525  00000+0  45349-3 0  9999
2 19046  97.5094 346.3912 0028421 102.7550 257.6863 15.19000278 42108
SL-16 R/B               
1 19120U 88039B   26002.81560263  .00000269  00000+0  14977-3 0  9999
2 19120  71.0133 207.8361 0019554  80.1146 280.2185 14.19601560949035
COSMOS 1953             
1 19210U 88050A   25363.34859606  .00008063  00000+0  30114-3 0  9992
2 19210  82.5080 228.9139 0012535  18.6006 341.5688 15.27141359 27045
SL-8 R/B                
1 19257U 88053B   26002.81881429  .00000510  00000+0  17387-3 0  9993
2 19257  74.0462 233.8713 0019003  70.0604   8.0823 14.38874839967127
COSMOS 1975             
1 19573U 88093A   26002.62450340  .00011150  00000+0  42086-3 0  9997
2 19573  82.5187 183.9160 0012586  46.3973 313.8308 15.26821074  9326
SL-14 R/B               
1 19574U 88093B   26002.80089595  .00001033  00000+0  11643-3 0  9992
2 19574  82.5320 103.9040 0019311 255.1605 222.6929 14.85578206991258
SL-16 R/B               
1 19650U 88102B   26002.79039622 -.00000163  00000+0 -58140-4 0  9991
2 19650  71.0003 290.1515 0011961 115.6058 244.6302 14.16142376917565
INTERCOSMOS 24          
1 20261U 89080A   26002.79653927  .00000912  00000+0  25950-3 0  9999
2 20261  82.6067 147.2644 1188892  85.6937 287.8777 12.59475203658503
SL-14 R/B               
1 20262U 89080C   26002.86556543  .00000549  00000+0  16448-3 0  9992
2 20262  82.5913 215.4569 1230171 335.3086  19.3566 12.50431641651927
DELTA 1 R/B             
1 20323U 89089B   26002.60939227  .00000786  00000+0  20339-3 0  9992
2 20323  97.0739 220.5384 0068428 332.5933  27.1662 14.50593921886158
ARIANE 40 R/B           
1 20443U 90005H   26002.72643622  .00000638  00000+0  21684-3 0  9999
2 20443  98.3213  65.3085 0010806  47.9321 312.2785 14.39817390883315
